JY1SAT (JO-97)          
1 43803U 18099AX  26068.68634132  .00017774  00000+0  60804-3 0  9996
2 43803  97.4249 131.3625 0004723 256.6795 103.3919 15.30302628398390
STARLINK-1269           
1 45197U 20012V   26068.35569548 -.00001711  00000+0 -45704-4 0  9993
2 45197  53.1625  41.1374 0001486 101.6741 258.4426 15.30171241334869
